{
  "type": "FeatureCollection",
  "features": [
    {
      "type": "Feature",
      "properties": {
        "norad_id": 37484,
        "name": "COSMOS 2251 DEB",
        "group": "cosmos-2251-debris",
        "lat": 46.89814000019768,
        "lon": -119.55978128916259,
        "alt_km": 773.4300224581202,
        "timestamp": "2025-12-05T07:38:19.243037+00:00",
        "meta_object_name": "COSMOS 2251 DEB",
        "meta_object_id": "1993-036BLM",
        "meta_epoch": "2025-12-03T09:20:46.078080",
        "meta_mean_motion": 14.41715463,
        "meta_eccentricity": 0.00402033,
        "meta_inclination": 73.8249,
        "meta_ra_of_asc_node": 225.9911,
        "meta_arg_of_pericenter": 262.1785,
        "meta_mean_anomaly": 219.995,
        "meta_ephemeris_type": 0,
        "meta_classification_type": "U",
        "meta_norad_cat_id": 37484,
        "meta_element_set_no": 999,
        "meta_rev_at_epoch": 65244,
        "meta_bstar": 0.0010111713,
        "meta_mean_motion_dot": 3.303e-05,
        "meta_mean_motion_ddot": 0,
        "tle_line1": "1 37484U 93036BLM 25337.38942220  .00003303  00000+0  10112-2 0  9992",
        "tle_line2": "2 37484  73.8249 225.9911 0040203 262.1785 219.9950 14.41715463652442"
      },
      "geometry": {
        "type": "Point",
        "coordinates": [
          -119.55978128916259,
          46.89814000019768
        ]
      }
    },
    {
      "type": "Feature",
      "properties": {
        "norad_id": 37486,
        "name": "COSMOS 2251 DEB",
        "group": "cosmos-2251-debris",
        "lat": -11.419626345513729,
        "lon": 124.62515564039029,
        "alt_km": 688.8732286541563,
        "timestamp": "2025-12-05T07:38:19.243047+00:00",
        "meta_object_name": "COSMOS 2251 DEB",
        "meta_object_id": "1993-036BLP",
        "meta_epoch": "2025-12-02T16:54:10.956672",
        "meta_mean_motion": 14.13188429,
        "meta_eccentricity": 0.0228993,
        "meta_inclination": 73.688,
        "meta_ra_of_asc_node": 132.7403,
        "meta_arg_of_pericenter": 2.4987,
        "meta_mean_anomaly": 12.5088,
        "meta_ephemeris_type": 0,
        "meta_classification_type": "U",
        "meta_norad_cat_id": 37486,
        "meta_element_set_no": 999,
        "meta_rev_at_epoch": 63228,
        "meta_bstar": 0.0021348416,
        "meta_mean_motion_dot": 5.104e-05,
        "meta_mean_motion_ddot": 0,
        "tle_line1": "1 37486U 93036BLP 25336.70429348  .00005104  00000+0  21348-2 0  9994",
        "tle_line2": "2 37486  73.6880 132.7403 0228993   2.4987  12.5088 14.13188429632281"
      },
      "geometry": {
        "type": "Point",
        "coordinates": [
          124.62515564039029,
          -11.419626345513729
        ]
      }
    },
    {
      "type": "Feature",
      "properties": {
        "norad_id": 37487,
        "name": "COSMOS 2251 DEB",
        "group": "cosmos-2251-debris",
        "lat": 71.24044305424907,
        "lon": -94.9198771579534,
        "alt_km": 605.7249749282746,
        "timestamp": "2025-12-05T07:38:19.243057+00:00",
        "meta_object_name": "COSMOS 2251 DEB",
        "meta_object_id": "1993-036BLQ",
        "meta_epoch": "2025-12-03T22:50:37.663584",
        "meta_mean_motion": 14.80409078,
        "meta_eccentricity": 0.0025242,
        "meta_inclination": 73.9029,
        "meta_ra_of_asc_node": 209.5569,
        "meta_arg_of_pericenter": 49.3144,
        "meta_mean_anomaly": 311.022,
        "meta_ephemeris_type": 0,
        "meta_classification_type": "U",
        "meta_norad_cat_id": 37487,
        "meta_element_set_no": 999,
        "meta_rev_at_epoch": 81115,
        "meta_bstar": 0.0061344,
        "meta_mean_motion_dot": 0.00047415,
        "meta_mean_motion_ddot": 0,
        "tle_line1": "1 37487U 93036BLQ 25337.95182481  .00047415  00000+0  61344-2 0  9998",
        "tle_line2": "2 37487  73.9029 209.5569 0025242  49.3144 311.0220 14.80409078811153"
      },
      "geometry": {
        "type": "Point",
        "coordinates": [
          -94.9198771579534,
          71.24044305424907
        ]
      }
    },
    {
      "type": "Feature",
      "properties": {
        "norad_id": 37491,
        "name": "COSMOS 2251 DEB",
        "group": "cosmos-2251-debris",
        "lat": 43.61237531868844,
        "lon": 90.57085095688298,
        "alt_km": 1170.4695881626512,
        "timestamp": "2025-12-05T07:38:19.243068+00:00",
        "meta_object_name": "COSMOS 2251 DEB",
        "meta_object_id": "1993-036BLU",
        "meta_epoch": "2025-12-03T14:48:31.500000",
        "meta_mean_motion": 13.75236476,
        "meta_eccentricity": 0.03180692,
        "meta_inclination": 73.9058,
        "meta_ra_of_asc_node": 289.3863,
        "meta_arg_of_pericenter": 284.0782,
        "meta_mean_anomaly": 72.518,
        "meta_ephemeris_type": 0,
        "meta_classification_type": "U",
        "meta_norad_cat_id": 37491,
        "meta_element_set_no": 999,
        "meta_rev_at_epoch": 55621,
        "meta_bstar": 0.0021635807,
        "meta_mean_motion_dot": 2.973e-05,
        "meta_mean_motion_ddot": 0,
        "tle_line1": "1 37491U 93036BLU 25337.61703125  .00002973  00000+0  21636-2 0  9990",
        "tle_line2": "2 37491  73.9058 289.3863 0318069 284.0782  72.5180 13.75236476556211"
      },
      "geometry": {
        "type": "Point",
        "coordinates": [
          90.57085095688298,
          43.61237531868844
        ]
      }
    },
    {
      "type": "Feature",
      "properties": {
        "norad_id": 37498,
        "name": "COSMOS 2251 DEB",
        "group": "cosmos-2251-debris",
        "lat": -40.225663322455475,
        "lon": 31.941095246670642,
        "alt_km": 708.7924438442105,
        "timestamp": "2025-12-05T07:38:19.243088+00:00",
        "meta_object_name": "COSMOS 2251 DEB",
        "meta_object_id": "1993-036BMB",
        "meta_epoch": "2025-12-02T07:38:53.705760",
        "meta_mean_motion": 14.54689112,
        "meta_eccentricity": 0.00134342,
        "meta_inclination": 74.038,
        "meta_ra_of_asc_node": 203.6034,
        "meta_arg_of_pericenter": 264.7495,
        "meta_mean_anomaly": 95.2135,
        "meta_ephemeris_type": 0,
        "meta_classification_type": "U",
        "meta_norad_cat_id": 37498,
        "meta_element_set_no": 999,
        "meta_rev_at_epoch": 65203,
        "meta_bstar": 0.00080152077,
        "meta_mean_motion_dot": 3.406e-05,
        "meta_mean_motion_ddot": 0,
        "tle_line1": "1 37498U 93036BMB 25336.31867715  .00003406  00000+0  80152-3 0  9990",
        "tle_line2": "2 37498  74.0380 203.6034 0013434 264.7495  95.2135 14.54689112652037"
      },
      "geometry": {
        "type": "Point",
        "coordinates": [
          31.941095246670642,
          -40.225663322455475
        ]
      }
    },
    {
      "type": "Feature",
      "properties": {
        "norad_id": 37499,
        "name": "COSMOS 2251 DEB",
        "group": "cosmos-2251-debris",
        "lat": -70.69517191217899,
        "lon": -149.42476070422813,
        "alt_km": 801.5296331499476,
        "timestamp": "2025-12-05T07:38:19.243100+00:00",
        "meta_object_name": "COSMOS 2251 DEB",
        "meta_object_id": "1993-036BMC",
        "meta_epoch": "2025-12-02T18:10:26.857920",
        "meta_mean_motion": 14.34326576,
        "meta_eccentricity": 0.00266176,
        "meta_inclination": 74.0374,
        "meta_ra_of_asc_node": 340.4656,
        "meta_arg_of_pericenter": 59.6085,
        "meta_mean_anomaly": 300.7692,
        "meta_ephemeris_type": 0,
        "meta_classification_type": "U",
        "meta_norad_cat_id": 37499,
        "meta_element_set_no": 999,
        "meta_rev_at_epoch": 85006,
        "meta_bstar": 0.00020272386,
        "meta_mean_motion_dot": 5.46e-06,
        "meta_mean_motion_ddot": 0,
        "tle_line1": "1 37499U 93036BMC 25336.75725530  .00000546  00000+0  20272-3 0  9996",
        "tle_line2": "2 37499  74.0374 340.4656 0026617  59.6085 300.7692 14.34326576850069"
      },
      "geometry": {
        "type": "Point",
        "coordinates": [
          -149.42476070422813,
          -70.69517191217899
        ]
      }
    },
    {
      "type": "Feature",
      "properties": {
        "norad_id": 37528,
        "name": "COSMOS 2251 DEB",
        "group": "cosmos-2251-debris",
        "lat": -15.92780960292516,
        "lon": 131.39793638144087,
        "alt_km": 720.8148148367127,
        "timestamp": "2025-12-05T07:38:19.243111+00:00",
        "meta_object_name": "COSMOS 2251 DEB",
        "meta_object_id": "1993-036BNH",
        "meta_epoch": "2025-12-03T17:38:33.606816",
        "meta_mean_motion": 14.50464938,
        "meta_eccentricity": 0.00209786,
        "meta_inclination": 74.0361,
        "meta_ra_of_asc_node": 139.0576,
        "meta_arg_of_pericenter": 288.0784,
        "meta_mean_anomaly": 71.8091,
        "meta_ephemeris_type": 0,
        "meta_classification_type": "U",
        "meta_norad_cat_id": 37528,
        "meta_element_set_no": 999,
        "meta_rev_at_epoch": 85800,
        "meta_bstar": 0.00065341092,
        "meta_mean_motion_dot": 2.535e-05,
        "meta_mean_motion_ddot": 0,
        "tle_line1": "1 37528U 93036BNH 25337.73511119  .00002535  00000+0  65341-3 0  9990",
        "tle_line2": "2 37528  74.0361 139.0576 0020978 288.0784  71.8091 14.50464938858003"
      },
      "geometry": {
        "type": "Point",
        "coordinates": [
          131.39793638144087,
          -15.92780960292516
        ]
      }
    }
  ]
}